CCSDS_OMM_VERS = 2.0
CREATION_DATE  = 
ORIGINATOR     = 

OBJECT_NAME    = UNKNOWN
OBJECT_ID      = 
CENTER_NAME    = EARTH
REF_FRAME      = TEME
TIME_SYSTEM    = UTC
MEAN_ELEMENT_THEORY = SGP/SGP4

EPOCH          = 2026-02-20T13:10:35.798880
MEAN_MOTION    = 14.09800811
ECCENTRICITY   = .0067654
INCLINATION    = 90.0069
RA_OF_ASC_NODE = 271.6918
ARG_OF_PERICENTER = 16.2634
MEAN_ANOMALY   = 344.0700

EPHEMERIS_TYPE = 0
CLASSIFICATION_TYPE = U
NORAD_CAT_ID   = 87334
ELEMENT_SET_NO = 999
REV_AT_EPOCH   = 39647
BSTAR          = .80317E-2
MEAN_MOTION_DOT = .14442E-3
MEAN_MOTION_DDOT = 0

CCSDS_OMM_VERS = 2.0
CREATION_DATE  = 
ORIGINATOR     = 

OBJECT_NAME    = UNKNOWN
OBJECT_ID      = 
CENTER_NAME    = EARTH
REF_FRAME      = TEME
TIME_SYSTEM    = UTC
MEAN_ELEMENT_THEORY = SGP/SGP4

EPOCH          = 2026-02-20T13:07:41.002176
MEAN_MOTION    = 14.09941281
ECCENTRICITY   = .0086754
INCLINATION    = 89.9953
RA_OF_ASC_NODE = 267.8927
ARG_OF_PERICENTER = 357.6853
MEAN_ANOMALY   = 2.3918

EPHEMERIS_TYPE = 0
CLASSIFICATION_TYPE = U
NORAD_CAT_ID   = 87335
ELEMENT_SET_NO = 999
REV_AT_EPOCH   = 39680
BSTAR          = .82408E-2
MEAN_MOTION_DOT = .15062E-3
MEAN_MOTION_DDOT = 0

CCSDS_OMM_VERS = 2.0
CREATION_DATE  = 
ORIGINATOR     = 

OBJECT_NAME    = UNKNOWN
OBJECT_ID      = 
CENTER_NAME    = EARTH
REF_FRAME      = TEME
TIME_SYSTEM    = UTC
MEAN_ELEMENT_THEORY = SGP/SGP4

EPOCH          = 2026-02-20T06:47:49.655040
MEAN_MOTION    = 13.96697335
ECCENTRICITY   = .0058963
INCLINATION    = 82.7534
RA_OF_ASC_NODE = 5.2379
ARG_OF_PERICENTER = 127.7190
MEAN_ANOMALY   = 232.9343

EPHEMERIS_TYPE = 0
CLASSIFICATION_TYPE = U
NORAD_CAT_ID   = 87405
ELEMENT_SET_NO = 999
REV_AT_EPOCH   = 62086
BSTAR          = .14549E-2
MEAN_MOTION_DOT = .2062E-4
MEAN_MOTION_DDOT = 0

CCSDS_OMM_VERS = 2.0
CREATION_DATE  = 
ORIGINATOR     = 

OBJECT_NAME    = UNKNOWN
OBJECT_ID      = 
CENTER_NAME    = EARTH
REF_FRAME      = TEME
TIME_SYSTEM    = UTC
MEAN_ELEMENT_THEORY = SGP/SGP4

EPOCH          = 2026-02-17T17:13:43.715712
MEAN_MOTION    = 14.30454598
ECCENTRICITY   = .0069527
INCLINATION    = 65.7846
RA_OF_ASC_NODE = 152.8442
ARG_OF_PERICENTER = 263.3743
MEAN_ANOMALY   = 246.3642

EPHEMERIS_TYPE = 0
CLASSIFICATION_TYPE = U
NORAD_CAT_ID   = 87426
ELEMENT_SET_NO = 999
REV_AT_EPOCH   = 63216
BSTAR          = .17327E-2
MEAN_MOTION_DOT = .4548E-4
MEAN_MOTION_DDOT = 0

CCSDS_OMM_VERS = 2.0
CREATION_DATE  = 
ORIGINATOR     = 

OBJECT_NAME    = UNKNOWN
OBJECT_ID      = 
CENTER_NAME    = EARTH
REF_FRAME      = TEME
TIME_SYSTEM    = UTC
MEAN_ELEMENT_THEORY = SGP/SGP4

EPOCH          = 2026-02-20T01:54:39.461760
MEAN_MOTION    = 13.90831900
ECCENTRICITY   = .0063922
INCLINATION    = 100.4517
RA_OF_ASC_NODE = 271.1693
ARG_OF_PERICENTER = 23.9172
MEAN_ANOMALY   = 336.4930

EPHEMERIS_TYPE = 0
CLASSIFICATION_TYPE = U
NORAD_CAT_ID   = 87448
ELEMENT_SET_NO = 999
REV_AT_EPOCH   = 61887
BSTAR          = .94629E-3
MEAN_MOTION_DOT = .1149E-4
MEAN_MOTION_DDOT = 0

CCSDS_OMM_VERS = 2.0
CREATION_DATE  = 
ORIGINATOR     = 

OBJECT_NAME    = UNKNOWN
OBJECT_ID      = 
CENTER_NAME    = EARTH
REF_FRAME      = TEME
TIME_SYSTEM    = UTC
MEAN_ELEMENT_THEORY = SGP/SGP4

EPOCH          = 2026-02-19T00:54:15.354144
MEAN_MOTION    = 14.15013935
ECCENTRICITY   = .0509367
INCLINATION    = 65.7714
RA_OF_ASC_NODE = 269.4979
ARG_OF_PERICENTER = 329.8820
MEAN_ANOMALY   = 27.3842

EPHEMERIS_TYPE = 0
CLASSIFICATION_TYPE = U
NORAD_CAT_ID   = 87456
ELEMENT_SET_NO = 999
REV_AT_EPOCH   = 62115
BSTAR          = .58602E-3
MEAN_MOTION_DOT = .399E-4
MEAN_MOTION_DDOT = 0

CCSDS_OMM_VERS = 2.0
CREATION_DATE  = 
ORIGINATOR     = 

OBJECT_NAME    = UNKNOWN
OBJECT_ID      = 
CENTER_NAME    = EARTH
REF_FRAME      = TEME
TIME_SYSTEM    = UTC
MEAN_ELEMENT_THEORY = SGP/SGP4

EPOCH          = 2026-02-12T14:12:24.257952
MEAN_MOTION    = 13.61840426
ECCENTRICITY   = .0675202
INCLINATION    = 65.8215
RA_OF_ASC_NODE = 82.0543
ARG_OF_PERICENTER = 276.9785
MEAN_ANOMALY   = 160.5715

EPHEMERIS_TYPE = 0
CLASSIFICATION_TYPE = U
NORAD_CAT_ID   = 87517
ELEMENT_SET_NO = 999
REV_AT_EPOCH   = 60133
BSTAR          = .15781E-2
MEAN_MOTION_DOT = .5788E-4
MEAN_MOTION_DDOT = 0

CCSDS_OMM_VERS = 2.0
CREATION_DATE  = 
ORIGINATOR     = 

OBJECT_NAME    = UNKNOWN
OBJECT_ID      = 
CENTER_NAME    = EARTH
REF_FRAME      = TEME
TIME_SYSTEM    = UTC
MEAN_ELEMENT_THEORY = SGP/SGP4

EPOCH          = 2026-02-12T19:51:18.356256
MEAN_MOTION    = 13.35607109
ECCENTRICITY   = .006
INCLINATION    = 99.6992
RA_OF_ASC_NODE = 259.6230
ARG_OF_PERICENTER = 111.6337
MEAN_ANOMALY   = 311.9721

EPHEMERIS_TYPE = 0
CLASSIFICATION_TYPE = U
NORAD_CAT_ID   = 87541
ELEMENT_SET_NO = 999
REV_AT_EPOCH   = 59032
BSTAR          = .1729E-3
MEAN_MOTION_DOT = .48E-6
MEAN_MOTION_DDOT = 0

CCSDS_OMM_VERS = 2.0
CREATION_DATE  = 
ORIGINATOR     = 

OBJECT_NAME    = UNKNOWN
OBJECT_ID      = 
CENTER_NAME    = EARTH
REF_FRAME      = TEME
TIME_SYSTEM    = UTC
MEAN_ELEMENT_THEORY = SGP/SGP4

EPOCH          = 2026-02-19T18:07:26.802912
MEAN_MOTION    = 13.53959633
ECCENTRICITY   = .0693457
INCLINATION    = 65.6693
RA_OF_ASC_NODE = 188.7923
ARG_OF_PERICENTER = 196.8794
MEAN_ANOMALY   = 160.8105

EPHEMERIS_TYPE = 0
CLASSIFICATION_TYPE = U
NORAD_CAT_ID   = 87553
ELEMENT_SET_NO = 999
REV_AT_EPOCH   = 60059
BSTAR          = .16107E-2
MEAN_MOTION_DOT = .5228E-4
MEAN_MOTION_DDOT = 0

CCSDS_OMM_VERS = 2.0
CREATION_DATE  = 
ORIGINATOR     = 

OBJECT_NAME    = UNKNOWN
OBJECT_ID      = 
CENTER_NAME    = EARTH
REF_FRAME      = TEME
TIME_SYSTEM    = UTC
MEAN_ELEMENT_THEORY = SGP/SGP4

EPOCH          = 2026-02-15T02:07:30.430560
MEAN_MOTION    = 13.28385605
ECCENTRICITY   = .0067846
INCLINATION    = 101.7593
RA_OF_ASC_NODE = 275.0260
ARG_OF_PERICENTER = 249.3906
MEAN_ANOMALY   = 109.9922

EPHEMERIS_TYPE = 0
CLASSIFICATION_TYPE = U
NORAD_CAT_ID   = 87557
ELEMENT_SET_NO = 999
REV_AT_EPOCH   = 57357
BSTAR          = .71304E-2
MEAN_MOTION_DOT = .3239E-4
MEAN_MOTION_DDOT = 0

CCSDS_OMM_VERS = 2.0
CREATION_DATE  = 
ORIGINATOR     = 

OBJECT_NAME    = UNKNOWN
OBJECT_ID      = 
CENTER_NAME    = EARTH
REF_FRAME      = TEME
TIME_SYSTEM    = UTC
MEAN_ELEMENT_THEORY = SGP/SGP4

EPOCH          = 2026-02-17T15:16:37.099200
MEAN_MOTION    = 12.32165577
ECCENTRICITY   = .017602
INCLINATION    = 101.9988
RA_OF_ASC_NODE = 109.3011
ARG_OF_PERICENTER = 170.7526
MEAN_ANOMALY   = 344.4958

EPHEMERIS_TYPE = 0
CLASSIFICATION_TYPE = U
NORAD_CAT_ID   = 87561
ELEMENT_SET_NO = 999
REV_AT_EPOCH   = 55067
BSTAR          = .35805E-3
MEAN_MOTION_DOT = .2E-7
MEAN_MOTION_DDOT = 0

CCSDS_OMM_VERS = 2.0
CREATION_DATE  = 
ORIGINATOR     = 

OBJECT_NAME    = UNKNOWN
OBJECT_ID      = 
CENTER_NAME    = EARTH
REF_FRAME      = TEME
TIME_SYSTEM    = UTC
MEAN_ELEMENT_THEORY = SGP/SGP4

EPOCH          = 2026-02-12T18:52:38.533440
MEAN_MOTION    = 14.06188015
ECCENTRICITY   = .0171634
INCLINATION    = 99.9502
RA_OF_ASC_NODE = 46.4775
ARG_OF_PERICENTER = 3.1182
MEAN_ANOMALY   = 357.1011

EPHEMERIS_TYPE = 0
CLASSIFICATION_TYPE = U
NORAD_CAT_ID   = 87565
ELEMENT_SET_NO = 999
REV_AT_EPOCH   = 62515
BSTAR          = .10207E-2
MEAN_MOTION_DOT = .1866E-4
MEAN_MOTION_DDOT = 0

