UNKNOWN                 
1 87334U          26051.54902545  .00014442  00000+0  80317-2 0  9998
2 87334  90.0069 271.6918 0067654  16.2634 344.0700 14.09800811396474
UNKNOWN                 
1 87335U          26051.54700234  .00015062  00000+0  82408-2 0  9992
2 87335  89.9953 267.8927 0086754 357.6853   2.3918 14.09941281396807
UNKNOWN                 
1 87405U          26051.28321360  .00002062  00000+0  14549-2 0  9997
2 87405  82.7534   5.2379 0058963 127.7190 232.9343 13.96697335620869
UNKNOWN                 
1 87426U          26048.71786708  .00004548  00000+0  17327-2 0  9993
2 87426  65.7846 152.8442 0069527 263.3743 246.3642 14.30454598632166
UNKNOWN                 
1 87448U          26051.07962340  .00001149  00000+0  94629-3 0  9993
2 87448 100.4517 271.1693 0063922  23.9172 336.4930 13.90831900618878
UNKNOWN                 
1 87456U          26050.03767771  .00003990  00000+0  58602-3 0  9995
2 87456  65.7714 269.4979 0509367 329.8820  27.3842 14.15013935621153
UNKNOWN                 
1 87517U          26043.59194743  .00005788  00000+0  15781-2 0  9996
2 87517  65.8215  82.0543 0675202 276.9785 160.5715 13.61840426601338
UNKNOWN                 
1 87541U          26043.82729579  .00000048  00000+0  17290-3 0  9992
2 87541  99.6992 259.6230 0060000 111.6337 311.9721 13.35607109590324
UNKNOWN                 
1 87553U          26050.75517133  .00005228  00000+0  16107-2 0  9996
2 87553  65.6693 188.7923 0693457 196.8794 160.8105 13.53959633600599
UNKNOWN                 
1 87557U          26046.08854665  .00003239  00000+0  71304-2 0  9995
2 87557 101.7593 275.0260 0067846 249.3906 109.9922 13.28385605573576
UNKNOWN                 
1 87561U          26048.63654050  .00000002  00000+0  35805-3 0  9991
2 87561 101.9988 109.3011 0176020 170.7526 344.4958 12.32165577550673
UNKNOWN                 
1 87565U          26043.78655710  .00001866  00000+0  10207-2 0  9997
2 87565  99.9502  46.4775 0171634   3.1182 357.1011 14.06188015625158
